[{"OBJECT_NAME":"STARLINK-4052","OBJECT_ID":"2022-083AR","EPOCH":"2026-03-09T13:27:12.156768","MEAN_MOTION":15.08839775,"ECCENTRICITY":0.0001527,"INCLINATION":53.2163,"RA_OF_ASC_NODE":134.4606,"ARG_OF_PERICENTER":98.5147,"MEAN_ANOMALY":261.6019,"EPHEMERIS_TYPE":0,"CLASSIFICATION_TYPE":"U","NORAD_CAT_ID":53171,"ELEMENT_SET_NO":999,"REV_AT_EPOCH":20175,"BSTAR":3.1477e-5,"MEAN_MOTION_DOT":2.13e-6,"MEAN_MOTION_DDOT":0},{"OBJECT_NAME":"DELTA 2 R\/B(1)","OBJECT_ID":"1992-089B","EPOCH":"2026-03-09T21:18:04.780512","MEAN_MOTION":14.95843552,"ECCENTRICITY":0.00502643,"INCLINATION":20.2848,"RA_OF_ASC_NODE":268.5776,"ARG_OF_PERICENTER":187.692,"MEAN_ANOMALY":172.2737,"EPHEMERIS_TYPE":0,"CLASSIFICATION_TYPE":"U","NORAD_CAT_ID":22276,"ELEMENT_SET_NO":999,"REV_AT_EPOCH":77681,"BSTAR":0.00031307363,"MEAN_MOTION_DOT":4.132e-5,"MEAN_MOTION_DDOT":0}]
